{
  "type": "FeatureCollection",
  "features": [
    {
      "type": "Feature",
      "properties": {
        "name": "drought_area"
      },
      "geometry": {
        "type": "Polygon",
        "coordinates": [
          [
            [
              48.3486515,
              39.9961214
            ],
            [
              48.263864,
              39.834035
            ],
            [
              48.5490583,
              39.9207916
            ],
            [
              48.3486515,
              39.9961214
            ]
          ]
        ]
      }
    },
    {
      "type": "Feature",
      "properties": {
        "name": "rashad_field_1"
      },
      "geometry": {
        "type": "Polygon",
        "coordinates": [
          [
            [
              48.31075404534087,
              39.89861992836782
            ],
            [
              48.35057847649463,
              39.89861992836782
            ],
            [
              48.35057847649463,
              39.874962273938934
            ],
            [
              48.31075404534087,
              39.874962273938934
            ],
            [
              48.31075404534087,
              39.89861992836782
            ]
          ]
        ]
      }
    },
    {
      "type": "Feature",
      "properties": {
        "name": "rashad_field_2"
      },
      "geometry": {
        "type": "Polygon",
        "coordinates": [
          [
            [
              48.343572276422606,
              39.97277071668714
            ],
            [
              48.38146971897211,
              39.97277071668714
            ],
            [
              48.38146971897211,
              39.95603219709872
            ],
            [
              48.343572276422606,
              39.95603219709872
            ],
            [
              48.343572276422606,
              39.97277071668714
            ]
          ]
        ]
      }
    },
    {
      "type": "Feature",
      "properties": {
        "name": "rashad_field_3"
      },
      "geometry": {
        "type": "Polygon",
        "coordinates": [
          [
            [
              48.43157142268183,
              39.936334574782364
            ],
            [
              48.479103808252404,
              39.936334574782364
            ],
            [
              48.479103808252404,
              39.90677750831168
            ],
            [
              48.43157142268183,
              39.90677750831168
            ],
            [
              48.43157142268183,
              39.936334574782364
            ]
          ]
        ]
      }
    },
    {
      "type": "Feature",
      "properties": {
        "@circle": {
          "type": "Mercator",
          "center": [
            48.4863031,
            39.8217949
          ]
        },
        "name": "Saatly district"
      },
      "geometry": {
        "type": "Polygon",
        "coordinates": [
          [
            [
              48.7087425084608,
              39.821794869089345
            ],
            [
              48.70830357501401,
              39.832521314237525
            ],
            [
              48.7069885069434,
              39.84320376213822
            ],
            [
              48.70480249422188,
              39.85380008348622
            ],
            [
              48.70175416404295,
              39.864268508065734
            ],
            [
              48.69785554677317,
              39.874567788833545
            ],
            [
              48.693122028473795,
              39.88465736364648
            ],
            [
              48.687572290179034,
              39.894497514012016
            ],
            [
              48.68122823417049,
              39.904049520255825
            ],
            [
              48.67411489753889,
              39.9132758125193
            ],
            [
              48.66626035337418,
              39.922140117019474
            ],
            [
              48.65769559997375,
              39.930607597025734
            ],
            [
              48.64845443850642,
              39.93864498803155
            ],
            [
              48.638573339614595,
              39.946220726624134
            ],
            [
              48.62809129948139,
              39.95330507258143
            ],
            [
              48.617049685930404,
              39.9598702237537
            ],
            [
              48.60549207516588,
              39.965890423315535
            ],
            [
              48.59346407979735,
              39.971342059004066
            ],
            [
              48.58101316882746,
              39.976203753989836
            ],
            [
              48.56818848031352,
              39.98045644905837
            ],
            [
              48.55504062744209,
              39.9840834758125
            ],
            [
              48.54162149878172,
              39.98707062063846
            ],
            [
              48.52798405350264,
              39.989406179212146
            ],
            [
              48.51418211237101,
              39.991081001355255
            ],
            [
              48.500270145342974,
              39.992088526085794
            ],
            [
              48.4863030565966,
              39.99242480674096
            ],
            [
              48.472335967850235,
              39.992088526085794
            ],
            [
              48.45842400082219,
              39.991081001355255
            ],
            [
              48.44462205969056,
              39.989406179212146
            ],
            [
              48.430984614411486,
              39.98707062063846
            ],
            [
              48.41756548575112,
              39.9840834758125
            ],
            [
              48.40441763287967,
              39.98045644905837
            ],
            [
              48.39159294436575,
              39.976203753989836
            ],
            [
              48.37914203339585,
              39.971342059004066
            ],
            [
              48.367114038027324,
              39.965890423315535
            ],
            [
              48.355556427262805,
              39.9598702237537
            ],
            [
              48.34451481371182,
              39.95330507258143
            ],
            [
              48.334032773578606,
              39.946220726624134
            ],
            [
              48.32415167468679,
              39.93864498803155
            ],
            [
              48.31491051321945,
              39.930607597025734
            ],
            [
              48.30634575981902,
              39.922140117019474
            ],
            [
              48.2984912156543,
              39.9132758125193
            ],
            [
              48.29137787902272,
              39.904049520255825
            ],
            [
              48.28503382301416,
              39.894497514012016
            ],
            [
              48.27948408471941,
              39.88465736364648
            ],
            [
              48.27475056642003,
              39.874567788833545
            ],
            [
              48.270851949150256,
              39.864268508065734
            ],
            [
              48.26780361897133,
              39.85380008348622
            ],
            [
              48.2656176062498,
              39.84320376213822
            ],
            [
              48.2643025381792,
              39.83252131423753
            ],
            [
              48.26386360473241,
              39.821794869089345
            ],
            [
              48.2643025381792,
              39.81106674928526
            ],
            [
              48.2656176062498,
              39.80037930382742
            ],
            [
              48.26780361897133,
              39.789774740836236
            ],
            [
              48.270851949150256,
              39.77929496050428
            ],
            [
              48.27475056642003,
              39.76898138896337
            ],
            [
              48.27948408471941,
              39.758874813732454
            ],
            [
              48.28503382301416,
              39.74901522141281
            ],
            [
              48.29137787902272,
              39.739441638291964
            ],
            [
              48.2984912156543,
              39.73019197451066
            ],
            [
              48.30634575981902,
              39.72130287243636
            ],
            [
              48.31491051321945,
              39.712809559873605
            ],
            [
              48.32415167468679,
              39.70474570872474
            ],
            [
              48.334032773578606,
              39.697143299695284
            ],
            [
              48.34451481371182,
              39.69003249361605
            ],
            [
              48.355556427262805,
              39.68344150992818
            ],
            [
              48.367114038027324,
              39.67739651285033
            ],
            [
              48.37914203339585,
              39.671921505715666
            ],
            [
              48.39159294436575,
              39.66703823393359
            ],
            [
              48.40441763287967,
              39.662766096995654
            ],
            [
              48.41756548575112,
              39.65912206990696
            ],
            [
              48.430984614411486,
              39.65612063438469
            ],
            [
              48.44462205969056,
              39.65377372012401
            ],
            [
              48.45842400082219,
              39.65209065638761
            ],
            [
              48.472335967850235,
              39.65107813413116
            ],
            [
              48.4863030565966,
              39.650740178830745
            ],
            [
              48.50027014534296,
              39.65107813413116
            ],
            [
              48.51418211237101,
              39.65209065638761
            ],
            [
              48.52798405350264,
              39.65377372012401
            ],
            [
              48.54162149878172,
              39.65612063438469
            ],
            [
              48.55504062744209,
              39.65912206990696
            ],
            [
              48.56818848031352,
              39.662766096995654
            ],
            [
              48.58101316882746,
              39.66703823393359
            ],
            [
              48.59346407979735,
              39.671921505715666
            ],
            [
              48.60549207516588,
              39.67739651285033
            ],
            [
              48.617049685930404,
              39.68344150992818
            ],
            [
              48.62809129948139,
              39.69003249361605
            ],
            [
              48.638573339614595,
              39.697143299695284
            ],
            [
              48.64845443850642,
              39.70474570872474
            ],
            [
              48.65769559997375,
              39.712809559873605
            ],
            [
              48.66626035337418,
              39.72130287243636
            ],
            [
              48.67411489753889,
              39.73019197451066
            ],
            [
              48.68122823417049,
              39.739441638291964
            ],
            [
              48.687572290179034,
              39.74901522141281
            ],
            [
              48.693122028473795,
              39.758874813732454
            ],
            [
              48.69785554677317,
              39.76898138896337
            ],
            [
              48.70175416404295,
              39.77929496050428
            ],
            [
              48.70480249422188,
              39.789774740836236
            ],
            [
              48.7069885069434,
              39.80037930382742
            ],
            [
              48.7087425084608,
              39.821794869089345
            ]
          ]
        ]
      }
    },
    {
      "type": "Feature",
      "properties": {
        "name": "agroco_parcel_1"
      },
      "geometry": {
        "type": "Polygon",
        "coordinates": [
          [
            [
              46.2174347,
              40.5141337
            ],
            [
              46.145027,
              40.2792955
            ],
            [
              46.4372473,
              40.3389279
            ],
            [
              46.2174347,
              40.5141337
            ]
          ]
        ]
      }
    },
    {
      "type": "Feature",
      "properties": {
        "name": "agroco_parcel_2"
      },
      "geometry": {
        "type": "Polygon",
        "coordinates": [
          [
            [
              46.5463154,
              40.5159448
            ],
            [
              46.4845787,
              40.3499071
            ],
            [
              46.7479885,
              40.3828339
            ],
            [
              46.5463154,
              40.5159448
            ]
          ]
        ]
      }
    }
  ]
}